GPS BIIR-2  (PRN 13)    
1 24876U 97035A   24243.06745647 -.00000030  00000+0  00000+0 0  9997
2 24876  55.6909 124.2433 0083531  53.6558 307.1802  2.00560973198791
GPS BIIR-4  (PRN 20)    
1 26360U 00025A   24243.41967501 -.00000056  00000+0  00000+0 0  9992
2 26360  54.7273  45.8588 0038771 216.0272 125.7632  2.00573592178118
GPS BIIR-5  (PRN 22)    
1 26407U 00040A   24243.41762846  .00000039  00000+0  00000+0 0  9996
2 26407  55.0406 241.2292 0143502 295.4408 244.6938  2.00561269176797
GPS BIIR-8  (PRN 16)    
1 27663U 03005A   24243.09547468  .00000043  00000+0  00000+0 0  9995
2 27663  55.0787 241.0532 0137183  47.5769  38.9091  2.00570602158158
GPS BIIR-9  (PRN 21)    
1 27704U 03010A   24242.68774502 -.00000119  00000+0  00000+0 0  9997
2 27704  55.0829 350.8266 0253990 329.3074  38.8618  2.00565656156941
GPS BIIR-11 (PRN 19)    
1 28190U 04009A   24243.43432376 -.00000037  00000+0  00000+0 0  9999
2 28190  55.3893 302.0729 0098848 152.0744 334.3477  2.00557140149793
GPS BIIR-13 (PRN 02)    
1 28474U 04045A   24243.27819199 -.00000119  00000+0  00000+0 0  9999
2 28474  55.4122 351.2469 0163054 294.2127 125.6356  2.00562006145270
GPS BIIRM-1 (PRN 17)    
1 28874U 05038A   24243.31761213 -.00000031  00000+0  00000+0 0  9997
2 28874  55.4350 299.5414 0137400 284.7875 139.9784  2.00550478138681
GPS BIIRM-2 (PRN 31)    
1 29486U 06042A   24243.36627178 -.00000042  00000+0  00000+0 0  9991
2 29486  54.6781 177.3491 0104589  40.1888 320.7525  2.00551436131241
GPS BIIRM-3 (PRN 12)    
1 29601U 06052A   24243.28626472  .00000040  00000+0  00000+0 0  9995
2 29601  55.1112 240.0283 0084335  83.5862 277.3874  2.00571774130251
GPS BIIRM-4 (PRN 15)    
1 32260U 07047A   24243.09209807 -.00000021  00000+0  00000+0 0  9993
2 32260  53.6446 107.1870 0158273  77.0122 284.8327  2.00560443123657
GPS BIIRM-5 (PRN 29)    
1 32384U 07062A   24243.42797913 -.00000033  00000+0  00000+0 0  9997
2 32384  55.5759 300.4100 0028323 156.3566 216.6064  2.00551648122366
GPS BIIRM-6 (PRN 07)    
1 32711U 08012A   24243.50736437 -.00000043  00000+0  00000+0 0  9991
2 32711  54.4515 176.0882 0189318 239.8637 118.2295  2.00570181120601
GPS BIIRM-8 (PRN 05)    
1 35752U 09043A   24243.48402127 -.00000040  00000+0  00000+0 0  9994
2 35752  55.7367  53.3312 0056931  74.8969 283.1617  2.00565032110206
GPS BIIF-1  (PRN 25)    
1 36585U 10022A   24243.44441562  .00000032  00000+0  00000+0 0  9990
2 36585  54.4244 235.0009 0114953  61.9990  25.6207  2.00555226104440
GPS BIIF-3  (PRN 24)    
1 38833U 12053A   24243.18974261 -.00000047  00000+0  00000+0 0  9999
2 38833  53.5185 170.4467 0156112  56.9718 304.5030  2.00559763 86281
GPS BIIF-4  (PRN 27)    
1 39166U 13023A   24243.05217410 -.00000023  00000+0  00000+0 0  9993
2 39166  55.0483 295.6028 0123919  44.9924 316.0773  2.00562593 82729
GPS BIIF-5  (PRN 30)    
1 39533U 14008A   24243.04930865 -.00000042  00000+0  00000+0 0  9991
2 39533  53.6007 176.0603 0073290 221.2324 138.1930  2.00572725 76521
GPS BIIF-6  (PRN 06)    
1 39741U 14026A   24243.32949911 -.00000118  00000+0  00000+0 0  9999
2 39741  56.7042 356.9973 0031492 314.0321  45.7176  2.00563033 75380
GPS BIIF-7  (PRN 09)    
1 40105U 14045A   24242.92240961 -.00000025  00000+0  00000+0 0  9997
2 40105  54.9610 114.6611 0028394 115.0086 245.3627  2.00571452 72918
GPS BIIF-8  (PRN 03)    
1 40294U 14068A   24243.79501525 -.00000033  00000+0  00000+0 0  9992
2 40294  56.4861  56.3317 0055192  64.9975 295.6152  2.00564666 72046
GPS BIIF-9  (PRN 26)    
1 40534U 15013A   24242.92745984  .00000033  00000+0  00000+0 0  9992
2 40534  53.3226 231.3407 0090047  30.1893 330.3246  2.00561114 68660
GPS BIIF-10 (PRN 08)    
1 40730U 15033A   24243.58792361 -.00000020  00000+0  00000+0 0  9993
2 40730  54.5304 294.0176 0095061  19.7392 340.7007  2.00563238 66842
GPS BIIF-11 (PRN 10)    
1 41019U 15062A   24242.65099850 -.00000034  00000+0  00000+0 0  9991
2 41019  56.4648  56.2301 0097473 224.5294 134.7233  2.00562643 64668
GPS BIIF-12 (PRN 32)    
1 41328U 16007A   24243.23052961 -.00000022  00000+0  00000+0 0  9998
2 41328  55.1537 115.5078 0080161 238.5857 120.7043  2.00558300 62689
GPS BIII-1  (PRN 04)    
1 43873U 18109A   24242.60127248 -.00000031  00000+0  00000+0 0  9991
2 43873  55.3230 118.1257 0030104 192.6100 324.0035  2.00559175 41902
GPS BIII-2  (PRN 18)    
1 44506U 19056A   24243.51512953 -.00000118  00000+0  00000+0 0  9995
2 44506  55.8366 357.1455 0046119 190.4222 171.1335  2.00572727 36928
GPS BIII-3  (PRN 23)    
1 45854U 20041A   24243.34484372 -.00000037  00000+0  00000+0 0  9992
2 45854  56.1872  54.5157 0046502 193.2490 340.2987  2.00572158 30881
GPS BIII-4  (PRN 14)    
1 46826U 20078A   24243.21895765  .00000036  00000+0  00000+0 0  9998
2 46826  54.1563 237.3991 0049156 198.8320 220.0950  2.00560381 28353
GPS BIII-5  (PRN 11)    
1 48859U 21054A   24243.34040723 -.00000118  00000+0  00000+0 0  9993
2 48859  55.3632 358.7698 0017778 219.8650 109.7860  2.00553753 23597
GPS BIII-6  (PRN 28)    
1 55268U 23009A   24243.06637353 -.00000043  00000+0  00000+0 0  9994
2 55268  55.0863 174.2720 0001326  63.7313 112.4468  2.00559455 12085
